LANDSAT 9               
1 49260U 21088A   24130.44132577  .00000778  00000+0  18261-3 0  9995
2 49260  98.1886 200.7131 0001292  89.0987 271.0360 14.57116099139041
